OBJECT_NAME,OBJECT_ID,EPOCH,MEAN_MOTION,ECCENTRICITY,INCLINATION,RA_OF_ASC_NODE,ARG_OF_PERICENTER,MEAN_ANOMALY,EPHEMERIS_TYPE,CLASSIFICATION_TYPE,NORAD_CAT_ID,ELEMENT_SET_NO,REV_AT_EPOCH,BSTAR,MEAN_MOTION_DOT,MEAN_MOTION_DDOT
OPS 6582 (TRANSIT 5B-5),1964-083D,2026-05-21T17:00:45.490176,13.57010064,.0041332,90.0784,202.8261,358.3100,124.4260,0,U,965,999,4002,.5875E-4,.51E-6,0
LES-1,1965-008C,2026-05-21T13:15:14.926176,9.88355194,.0015457,32.1404,107.7989,174.9783,185.0870,0,U,1002,999,21355,-.11615E-2,0,0
SOLRAD 7B,1965-016D,2026-05-21T17:22:41.082240,13.94972322,.0020223,70.0790,292.5233,162.5472,197.6333,0,U,1291,999,11301,.38749E-4,0,0
SECOR 4 (EGRS 4),1965-027B,2026-05-21T10:06:56.557152,12.92667484,.0029369,90.2521,14.9716,270.4817,266.4104,0,U,1315,999,88346,-.63923E-4,-.1E-6,0
TIROS 10,1965-051A,2026-05-21T17:42:52.176096,14.41618558,.0055805,98.5007,261.1897,157.3352,203.0319,0,U,1430,999,19210,.44951E-4,.104E-5,0
ALOUETTE 2,1965-098A,2026-05-20T21:05:01.770144,12.28322917,.1330065,79.7999,299.8996,287.9402,58.1308,0,U,1804,999,67592,.54729887E-4,.16E-5,0
OV3-3,1966-070A,2026-05-21T17:26:58.339104,13.44647864,.1014007,81.3275,354.3503,226.2980,124.9736,0,U,2389,999,59541,.2767E-3,.611E-4,0
SECOR 7 (EGRS 7),1966-077B,2026-05-19T08:33:48.039264,8.59615373,.00117656,90.3329,277.1015,86.5758,273.6439,0,U,2411,999,87490,-.36301632E-2,-.6E-7,0
ERS 15,1966-077C,2026-05-21T07:37:46.267104,8.59079307,.0007389,90.3334,276.9170,94.2616,265.9079,0,U,2412,999,38815,0,.2E-7,0
ISIS 1,1969-009A,2026-05-21T06:52:43.487616,11.30429077,.1706045,88.4416,147.3571,302.6054,42.1386,0,U,3669,999,35673,.3788E-4,.51E-6,0
SECOR 13 (EGRS 13),1969-037B,2026-05-21T10:44:12.422400,13.42975984,.0038967,99.6524,14.0907,318.0187,217.4098,0,U,3891,999,79816,.96116E-5,-.37E-6,0
ATS 5,1969-069A,2026-05-21T16:55:29.578080,0.99491472,.0005336,0.2345,167.4935,113.8086,67.4785,0,U,4068,999,4606,0,.93E-6,0
OPS 7613 (P/L 4),1969-082E,2026-05-21T05:29:35.003904,13.95991729,.00200499,70.0127,161.4806,172.9893,259.7333,0,U,4237,999,88254,.35449679E-4,-.4E-7,0
OPS 7613 (P/L 1),1969-082B,2026-05-21T17:08:34.402848,13.99189507,.0017066,70.0110,21.8857,101.5507,258.7518,0,U,4256,999,88676,.88397E-4,.75E-6,0
SHINSEI (MS-F2),1971-080A,2026-05-21T12:33:58.574304,12.74250475,.0639776,32.0556,218.5031,222.8110,132.0911,0,U,5485,999,54585,.80373E-4,.72E-6,0
PROSPERO (BLACK ARROW),1971-093A,2026-05-20T22:57:59.230656,14.01562653,.0500441,82.0371,314.7379,305.3071,50.2257,0,U,5580,999,74471,.92002892E-4,.439E-5,0
OPS 7898 (P/L 2),1971-110C,2026-05-21T18:12:53.840736,13.74756405,.0009237,69.9906,57.4599,217.4738,142.5713,0,U,5680,999,34458,.44374E-4,-.8E-7,0
NOAA 2 (ITOS-D),1972-082A,2026-05-21T17:04:41.781216,12.53214075,.0003886,102.0087,159.9922,215.3300,259.8014,0,U,6235,999,45163,.12274E-4,-.45E-6,0
OSCAR 7 (AO-7),1974-089B,2026-05-21T12:15:54.149760,12.53697596,.001227,101.9910,154.4789,180.2465,333.7760,0,U,7530,999,35717,-.45426E-4,-.54E-6,0
TIROS N,1978-096A,2026-05-21T08:24:43.797024,14.19366412,.0009572,98.4545,163.6179,326.2608,33.7959,0,U,11060,999,67494,.54936E-4,.74E-6,0
PHASE 3B (AO-10),1983-058B,2026-05-20T04:55:53.101344,2.05872908,.60205646,25.8960,224.2131,107.9633,323.3103,0,U,14129,999,29491,0,-.279E-5,0
HILAT,1983-063A,2026-05-21T13:11:27.491136,14.38692972,.0039498,82.0246,185.7900,13.6699,134.7111,0,U,14154,999,24375,.64985E-4,.217E-5,0
UOSAT 2 (UO-11),1984-021B,2026-05-21T18:36:33.060096,14.90710892,.0006033,97.8043,107.6496,272.7767,87.2760,0,U,14781,999,25319,.85771E-4,.786E-5,0
NOAA 9,1984-123A,2026-05-21T08:42:11.829024,14.17060115,.0015633,99.1005,167.3770,67.9076,303.1364,0,U,15427,999,13962,.41458E-4,.37E-6,0
GEOSAT,1985-021A,2026-05-21T16:20:52.367424,14.39952545,.0001275,108.0458,26.2888,266.3835,93.7162,0,U,15595,999,15895,.4787E-4,.15E-6,0
EUTELSAT 1-F4 (ECS 4),1987-078B,2026-05-21T12:58:01.385184,0.98687953,.0011491,13.8478,342.3136,41.2092,153.3512,0,U,18351,999,12649,0,-.103E-5,0
PACSAT (AO-16),1990-005D,2026-05-21T17:43:51.456000,14.33927177,.0009686,98.8539,176.7956,313.6392,164.4998,0,U,20439,999,89814,.38988E-4,.62E-6,0
LUSAT (LO-19),1990-005G,2026-05-21T12:43:33.256128,14.34113863,.0010456,98.8864,162.5997,286.0404,73.9628,0,U,20442,999,89857,.38811E-4,.62E-6,0
IRS-1B,1991-061A,2026-05-20T23:46:12.948096,13.97871134,.0025084,99.4120,148.2596,77.6456,337.0702,0,U,21688,999,66469,-.13848147E-3,-.243E-5,0
COSMOS 2197,1992-042A,2026-05-21T17:32:04.170048,12.64251605,.0011912,82.5948,245.8360,339.1404,141.1027,0,U,22034,999,56194,.10649E-3,.3E-6,0
PEGASUS R/B,1993-009C,2026-05-21T15:11:22.299936,14.57928649,.0043885,24.9777,257.1194,180.2429,179.8065,0,U,22491,999,76575,.96528E-4,.662E-5,0
EYESAT A (AO-27),1993-061C,2026-05-21T17:00:07.322976,14.30934102,.0008588,98.6889,209.1299,170.4927,189.6419,0,U,22825,999,70321,.38881E-4,.58E-6,0
ITAMSAT (IO-26),1993-061D,2026-05-21T16:41:50.094816,14.31360187,.0009401,98.6837,209.0321,155.0708,205.0931,0,U,22826,999,70352,.33042E-4,.43E-6,0
RADIO ROSTO (RS15),1994-085A,2026-05-21T16:28:45.285600,11.27583580,.0155202,64.8184,346.0766,8.7453,351.6120,0,U,23439,999,29291,-.10652E-3,-.46E-6,0
JAS-2 (FO-29),1996-046B,2026-05-21T13:06:40.811616,13.53272944,.0350132,98.5266,354.0642,165.4220,195.7337,0,U,24278,999,46956,.34558E-4,0,0
FORTE,1997-047A,2026-05-21T13:06:19.374048,14.27932722,.0024028,69.9534,74.1948,309.8555,50.0453,0,U,24920,999,49488,.67919E-4,.111E-5,0
NOAA 15,1998-030A,2026-05-21T16:25:12.021024,14.27137454,.0011396,98.5079,163.0316,68.2616,291.9777,0,U,25338,999,45751,.48878E-4,.77E-6,0
TECHSAT 1B (GO-32),1998-043D,2026-05-21T08:55:40.774080,14.24422440,.0000543,99.0064,133.4557,350.8227,9.2941,0,U,25397,999,44751,.28457E-4,.19E-6,0
ISS (ZARYA),1998-067A,2026-05-21T07:03:31.154112,15.49293486,.0007523,51.6329,73.2330,82.0965,278.0877,0,U,25544,999,56758,.11416E-3,.591E-4,0
ORSTED,1999-008B,2026-05-21T17:08:53.556000,14.51783369,.0130109,96.4837,55.2406,271.5834,87.0466,0,U,25635,999,43812,.70715E-4,.283E-5,0
LANDSAT 7,1999-020A,2026-05-21T17:28:22.293984,14.63890812,.0001566,97.8583,146.5772,102.3488,344.3199,0,U,25682,999,44197,.53235E-4,.234E-5,0
ORBCOMM FM36,1999-065E,2026-05-21T10:51:31.834656,14.39142900,.0004336,45.0392,286.4994,196.6807,163.3900,0,U,25984,999,38313,.21018E-3,.514E-5,0
DMSP 5D-3 F15 (USA 147),1999-067A,2026-05-21T18:22:18.742080,14.17552698,.0011113,98.9978,179.9880,79.4438,34.8674,0,U,25991,999,36690,.59198E-4,.75E-6,0
OPAL (OO-38),2000-004C,2026-05-21T17:40:41.713824,14.37953275,.0036482,100.1907,73.6826,109.3638,251.1493,0,U,26063,999,37948,.44477E-4,.76E-6,0
IMAGE,2000-017A,2026-05-20T09:48:00.949248,1.68665746,.74524778,94.2067,315.0050,290.9630,8.3365,0,U,26113,999,16103,.33926204E-1,.106E-5,0
CLUSTER II-FM7 (SAMBA),2000-041A,2026-05-23T14:16:45.983424,0.44823860,.90264729,149.8701,46.5713,263.4194,0.0915,0,U,26410,999,2019,0,.2941E-4,0
CLUSTER II-FM8 (TANGO),2000-045B,2026-05-23T15:37:47.085024,0.44399646,.9029962,150.1172,47.5958,264.3022,0.1110,0,U,26464,999,2018,0,.3021E-4,0
MEGSAT-1,2000-057B,2026-05-21T10:32:25.221120,15.05315297,.0041382,64.5467,154.8153,286.9127,72.7455,0,U,26546,999,39363,.12354E-3,.1622E-4,0
PHASE 3D (AO-40),2000-072B,2026-05-21T08:54:49.680576,1.25588293,.7931551,9.4661,355.1240,170.0692,230.0847,0,U,26609,999,11716,0,-.192E-5,0
ODIN,2001-007A,2026-05-21T13:00:05.311296,15.67634136,.0003943,97.3902,180.9360,175.7693,184.3601,0,U,26702,999,38521,.78977E-3,.86689E-3,0
OMNI-M1,2001-026A,2026-05-19T10:28:09.458112,3.92401339,.00151862,44.8407,251.8908,48.7845,311.3788,0,U,26857,999,20444,0,-.14E-6,0
PCSAT (NO-44),2001-043C,2026-05-21T18:11:01.855104,14.31944512,.0006208,67.0507,312.6302,263.6699,96.3696,0,U,26931,999,28666,.58109E-4,.73E-6,0
PROBA-1,2001-049B,2026-05-21T17:13:22.855296,15.07374557,.0054067,97.9598,149.3282,211.0639,148.7388,0,U,26958,999,33963,.29333E-4,.385E-5,0
SPOT 5,2002-021A,2026-05-21T16:34:28.377408,14.54730076,.0129539,97.9867,181.7249,359.5257,0.5797,0,U,27421,999,25899,.62559E-4,.25E-5,0
FENGYUN 1D,2002-024B,2026-05-21T18:06:54.158400,14.10220524,.001463,98.9537,192.2032,320.3765,39.6335,0,U,27431,999,23575,-.50103E-6,-.46E-6,0
SAUDISAT 1C (SO-50),2002-058C,2026-05-21T10:50:12.713856,14.82983376,.0075614,64.5520,211.7006,267.3643,91.8806,0,U,27607,999,26049,.86191E-4,.579E-5,0
CORIOLIS,2003-001A,2026-05-21T11:46:51.333888,14.19936703,.0012852,98.7132,148.7832,291.8419,68.1390,0,U,27640,999,21043,.48895E-4,.6E-6,0
CUTE-1 (CO-55),2003-031E,2026-05-21T11:35:54.082176,14.24317125,.0008295,98.6743,150.3782,262.0752,97.9485,0,U,27844,999,18787,.93673E-4,.173E-5,0
CUBESAT XI-IV (CO-57),2003-031J,2026-05-21T11:00:01.710432,14.23604667,.000822,98.6774,150.0876,283.6237,76.4026,0,U,27848,999,18757,.85962E-4,.152E-5,0
MOZHAETS 4 (RS22),2003-042A,2026-05-21T17:46:05.871072,14.73413406,.0011269,98.3469,325.3532,359.6729,128.8900,0,U,27939,999,21165,.78139E-4,.453E-5,0
IRS-P6 (RESOURCESAT-1),2003-046A,2026-05-21T18:23:27.151872,14.36150731,.0065378,98.1919,179.5717,62.1403,66.2492,0,U,28051,999,17673,-.78031E-5,-.64E-6,0
SAUDISAT 2,2004-025F,2026-05-21T10:42:23.320800,14.56665166,.0025159,98.5508,140.7380,21.7315,338.4944,0,U,28371,999,16185,.4777E-4,.164E-5,0
COSMOS 2407,2004-028A,2026-05-21T06:00:49.145184,13.76332262,.0038529,82.9591,94.7829,329.7472,141.3428,0,U,28380,999,9617,.53735E-4,.68E-6,0
COSMOS 2414,2005-002A,2026-05-21T17:15:20.039616,13.87923696,.0041266,82.9505,63.6656,46.2687,314.1881,0,U,28521,999,8014,.5167E-4,.78E-6,0
INMARSAT 4-F1,2005-009A,2026-05-21T13:19:24.566880,1.00270308,.0002622,5.1347,42.7138,14.5160,199.9215,0,U,28628,999,7740,0,.24E-6,0
HAMSAT (VO-52),2005-017B,2026-05-21T13:01:37.921728,15.09451175,.0020786,97.9919,163.4874,124.9531,235.3653,0,U,28650,999,14274,.22877E-3,.3609E-4,0
NOAA 18,2005-018A,2026-05-21T17:21:15.852096,14.13723876,.001352,98.8112,221.7833,222.8576,137.1544,0,U,28654,999,8257,.40198E-4,.32E-6,0
